; 96 wells, 100 uL/well. Current calibration: 2026-09-28
; Requires clear homing paths and 75 mm free upward Z travel.
; Startup homes XYZ and A (empties syringe). Keep other controllers idle.
G21
G90
M211 S1
M92 A1600
M203 A5
M220 S100
G91
G1 Z75.000 F300
M400
G90
G28 R0
M400
; Fill for column 1
G21
G90
M211 S1
M203 A10
G1 Z75.000 F300
M400
G1 X72.000 Y158.000 F30000
M400
G1 Z40.000 F300
M400
G1 A0.000 F600
M400
G1 A57.333 F600
M400
M114
; Well A1: 100 uL
G21
G90
M211 S1
G1 Z75.000 F300
M400
G1 X109.000 Y104.000 F30000
M400
G1 Z42.000 F300
M400
G1 A51.600 F600
M400
M114
; Well B1: 100 uL
G21
G90
M211 S1
G1 X118.000 Y104.000 F30000
M400
G1 A45.867 F600
M400
M114
; Well C1: 100 uL
G21
G90
M211 S1
G1 X127.000 Y104.000 F30000
M400
G1 A40.133 F600
M400
M114
; Well D1: 100 uL
G21
G90
M211 S1
G1 X136.000 Y104.000 F30000
M400
G1 A34.400 F600
M400
M114
; Well E1: 100 uL
G21
G90
M211 S1
G1 X145.000 Y104.000 F30000
M400
G1 A28.667 F600
M400
M114
; Well F1: 100 uL
G21
G90
M211 S1
G1 X154.000 Y104.000 F30000
M400
G1 A22.933 F600
M400
M114
; Well G1: 100 uL
G21
G90
M211 S1
G1 X163.000 Y104.000 F30000
M400
G1 A17.200 F600
M400
M114
; Well H1: 100 uL
G21
G90
M211 S1
G1 X172.000 Y104.000 F30000
M400
G1 A11.467 F600
M400
M114
; Fill for column 2
G21
G90
M211 S1
G1 Z75.000 F300
M400
G1 X72.000 Y158.000 F30000
M400
G1 Z40.000 F300
M400
G1 A0.000 F600
M400
G1 A57.333 F600
M400
M114
; Well A2: 100 uL
G21
G90
M211 S1
G1 Z75.000 F300
M400
G1 X109.000 Y113.091 F30000
M400
G1 Z42.000 F300
M400
G1 A51.600 F600
M400
M114
; Well B2: 100 uL
G21
G90
M211 S1
G1 X118.000 Y113.091 F30000
M400
G1 A45.867 F600
M400
M114
; Well C2: 100 uL
G21
G90
M211 S1
G1 X127.000 Y113.091 F30000
M400
G1 A40.133 F600
M400
M114
; Well D2: 100 uL
G21
G90
M211 S1
G1 X136.000 Y113.091 F30000
M400
G1 A34.400 F600
M400
M114
; Well E2: 100 uL
G21
G90
M211 S1
G1 X145.000 Y113.091 F30000
M400
G1 A28.667 F600
M400
M114
; Well F2: 100 uL
G21
G90
M211 S1
G1 X154.000 Y113.091 F30000
M400
G1 A22.933 F600
M400
M114
; Well G2: 100 uL
G21
G90
M211 S1
G1 X163.000 Y113.091 F30000
M400
G1 A17.200 F600
M400
M114
; Well H2: 100 uL
G21
G90
M211 S1
G1 X172.000 Y113.091 F30000
M400
G1 A11.467 F600
M400
M114
; Fill for column 3
G21
G90
M211 S1
G1 Z75.000 F300
M400
G1 X72.000 Y158.000 F30000
M400
G1 Z40.000 F300
M400
G1 A0.000 F600
M400
G1 A57.333 F600
M400
M114
; Well A3: 100 uL
G21
G90
M211 S1
G1 Z75.000 F300
M400
G1 X109.000 Y122.182 F30000
M400
G1 Z42.000 F300
M400
G1 A51.600 F600
M400
M114
; Well B3: 100 uL
G21
G90
M211 S1
G1 X118.000 Y122.182 F30000
M400
G1 A45.867 F600
M400
M114
; Well C3: 100 uL
G21
G90
M211 S1
G1 X127.000 Y122.182 F30000
M400
G1 A40.133 F600
M400
M114
; Well D3: 100 uL
G21
G90
M211 S1
G1 X136.000 Y122.182 F30000
M400
G1 A34.400 F600
M400
M114
; Well E3: 100 uL
G21
G90
M211 S1
G1 X145.000 Y122.182 F30000
M400
G1 A28.667 F600
M400
M114
; Well F3: 100 uL
G21
G90
M211 S1
G1 X154.000 Y122.182 F30000
M400
G1 A22.933 F600
M400
M114
; Well G3: 100 uL
G21
G90
M211 S1
G1 X163.000 Y122.182 F30000
M400
G1 A17.200 F600
M400
M114
; Well H3: 100 uL
G21
G90
M211 S1
G1 X172.000 Y122.182 F30000
M400
G1 A11.467 F600
M400
M114
; Fill for column 4
G21
G90
M211 S1
G1 Z75.000 F300
M400
G1 X72.000 Y158.000 F30000
M400
G1 Z40.000 F300
M400
G1 A0.000 F600
M400
G1 A57.333 F600
M400
M114
; Well A4: 100 uL
G21
G90
M211 S1
G1 Z75.000 F300
M400
G1 X109.000 Y131.273 F30000
M400
G1 Z42.000 F300
M400
G1 A51.600 F600
M400
M114
; Well B4: 100 uL
G21
G90
M211 S1
G1 X118.000 Y131.273 F30000
M400
G1 A45.867 F600
M400
M114
; Well C4: 100 uL
G21
G90
M211 S1
G1 X127.000 Y131.273 F30000
M400
G1 A40.133 F600
M400
M114
; Well D4: 100 uL
G21
G90
M211 S1
G1 X136.000 Y131.273 F30000
M400
G1 A34.400 F600
M400
M114
; Well E4: 100 uL
G21
G90
M211 S1
G1 X145.000 Y131.273 F30000
M400
G1 A28.667 F600
M400
M114
; Well F4: 100 uL
G21
G90
M211 S1
G1 X154.000 Y131.273 F30000
M400
G1 A22.933 F600
M400
M114
; Well G4: 100 uL
G21
G90
M211 S1
G1 X163.000 Y131.273 F30000
M400
G1 A17.200 F600
M400
M114
; Well H4: 100 uL
G21
G90
M211 S1
G1 X172.000 Y131.273 F30000
M400
G1 A11.467 F600
M400
M114
; Fill for column 5
G21
G90
M211 S1
G1 Z75.000 F300
M400
G1 X72.000 Y158.000 F30000
M400
G1 Z40.000 F300
M400
G1 A0.000 F600
M400
G1 A57.333 F600
M400
M114
; Well A5: 100 uL
G21
G90
M211 S1
G1 Z75.000 F300
M400
G1 X109.000 Y140.364 F30000
M400
G1 Z42.000 F300
M400
G1 A51.600 F600
M400
M114
; Well B5: 100 uL
G21
G90
M211 S1
G1 X118.000 Y140.364 F30000
M400
G1 A45.867 F600
M400
M114
; Well C5: 100 uL
G21
G90
M211 S1
G1 X127.000 Y140.364 F30000
M400
G1 A40.133 F600
M400
M114
; Well D5: 100 uL
G21
G90
M211 S1
G1 X136.000 Y140.364 F30000
M400
G1 A34.400 F600
M400
M114
; Well E5: 100 uL
G21
G90
M211 S1
G1 X145.000 Y140.364 F30000
M400
G1 A28.667 F600
M400
M114
; Well F5: 100 uL
G21
G90
M211 S1
G1 X154.000 Y140.364 F30000
M400
G1 A22.933 F600
M400
M114
; Well G5: 100 uL
G21
G90
M211 S1
G1 X163.000 Y140.364 F30000
M400
G1 A17.200 F600
M400
M114
; Well H5: 100 uL
G21
G90
M211 S1
G1 X172.000 Y140.364 F30000
M400
G1 A11.467 F600
M400
M114
; Fill for column 6
G21
G90
M211 S1
G1 Z75.000 F300
M400
G1 X72.000 Y158.000 F30000
M400
G1 Z40.000 F300
M400
G1 A0.000 F600
M400
G1 A57.333 F600
M400
M114
; Well A6: 100 uL
G21
G90
M211 S1
G1 Z75.000 F300
M400
G1 X109.000 Y149.455 F30000
M400
G1 Z42.000 F300
M400
G1 A51.600 F600
M400
M114
; Well B6: 100 uL
G21
G90
M211 S1
G1 X118.000 Y149.455 F30000
M400
G1 A45.867 F600
M400
M114
; Well C6: 100 uL
G21
G90
M211 S1
G1 X127.000 Y149.455 F30000
M400
G1 A40.133 F600
M400
M114
; Well D6: 100 uL
G21
G90
M211 S1
G1 X136.000 Y149.455 F30000
M400
G1 A34.400 F600
M400
M114
; Well E6: 100 uL
G21
G90
M211 S1
G1 X145.000 Y149.455 F30000
M400
G1 A28.667 F600
M400
M114
; Well F6: 100 uL
G21
G90
M211 S1
G1 X154.000 Y149.455 F30000
M400
G1 A22.933 F600
M400
M114
; Well G6: 100 uL
G21
G90
M211 S1
G1 X163.000 Y149.455 F30000
M400
G1 A17.200 F600
M400
M114
; Well H6: 100 uL
G21
G90
M211 S1
G1 X172.000 Y149.455 F30000
M400
G1 A11.467 F600
M400
M114
; Fill for column 7
G21
G90
M211 S1
G1 Z75.000 F300
M400
G1 X72.000 Y158.000 F30000
M400
G1 Z40.000 F300
M400
G1 A0.000 F600
M400
G1 A57.333 F600
M400
M114
; Well A7: 100 uL
G21
G90
M211 S1
G1 Z75.000 F300
M400
G1 X109.000 Y158.545 F30000
M400
G1 Z42.000 F300
M400
G1 A51.600 F600
M400
M114
; Well B7: 100 uL
G21
G90
M211 S1
G1 X118.000 Y158.545 F30000
M400
G1 A45.867 F600
M400
M114
; Well C7: 100 uL
G21
G90
M211 S1
G1 X127.000 Y158.545 F30000
M400
G1 A40.133 F600
M400
M114
; Well D7: 100 uL
G21
G90
M211 S1
G1 X136.000 Y158.545 F30000
M400
G1 A34.400 F600
M400
M114
; Well E7: 100 uL
G21
G90
M211 S1
G1 X145.000 Y158.545 F30000
M400
G1 A28.667 F600
M400
M114
; Well F7: 100 uL
G21
G90
M211 S1
G1 X154.000 Y158.545 F30000
M400
G1 A22.933 F600
M400
M114
; Well G7: 100 uL
G21
G90
M211 S1
G1 X163.000 Y158.545 F30000
M400
G1 A17.200 F600
M400
M114
; Well H7: 100 uL
G21
G90
M211 S1
G1 X172.000 Y158.545 F30000
M400
G1 A11.467 F600
M400
M114
; Fill for column 8
G21
G90
M211 S1
G1 Z75.000 F300
M400
G1 X72.000 Y158.000 F30000
M400
G1 Z40.000 F300
M400
G1 A0.000 F600
M400
G1 A57.333 F600
M400
M114
; Well A8: 100 uL
G21
G90
M211 S1
G1 Z75.000 F300
M400
G1 X109.000 Y167.636 F30000
M400
G1 Z42.000 F300
M400
G1 A51.600 F600
M400
M114
; Well B8: 100 uL
G21
G90
M211 S1
G1 X118.000 Y167.636 F30000
M400
G1 A45.867 F600
M400
M114
; Well C8: 100 uL
G21
G90
M211 S1
G1 X127.000 Y167.636 F30000
M400
G1 A40.133 F600
M400
M114
; Well D8: 100 uL
G21
G90
M211 S1
G1 X136.000 Y167.636 F30000
M400
G1 A34.400 F600
M400
M114
; Well E8: 100 uL
G21
G90
M211 S1
G1 X145.000 Y167.636 F30000
M400
G1 A28.667 F600
M400
M114
; Well F8: 100 uL
G21
G90
M211 S1
G1 X154.000 Y167.636 F30000
M400
G1 A22.933 F600
M400
M114
; Well G8: 100 uL
G21
G90
M211 S1
G1 X163.000 Y167.636 F30000
M400
G1 A17.200 F600
M400
M114
; Well H8: 100 uL
G21
G90
M211 S1
G1 X172.000 Y167.636 F30000
M400
G1 A11.467 F600
M400
M114
; Fill for column 9
G21
G90
M211 S1
G1 Z75.000 F300
M400
G1 X72.000 Y158.000 F30000
M400
G1 Z40.000 F300
M400
G1 A0.000 F600
M400
G1 A57.333 F600
M400
M114
; Well A9: 100 uL
G21
G90
M211 S1
G1 Z75.000 F300
M400
G1 X109.000 Y176.727 F30000
M400
G1 Z42.000 F300
M400
G1 A51.600 F600
M400
M114
; Well B9: 100 uL
G21
G90
M211 S1
G1 X118.000 Y176.727 F30000
M400
G1 A45.867 F600
M400
M114
; Well C9: 100 uL
G21
G90
M211 S1
G1 X127.000 Y176.727 F30000
M400
G1 A40.133 F600
M400
M114
; Well D9: 100 uL
G21
G90
M211 S1
G1 X136.000 Y176.727 F30000
M400
G1 A34.400 F600
M400
M114
; Well E9: 100 uL
G21
G90
M211 S1
G1 X145.000 Y176.727 F30000
M400
G1 A28.667 F600
M400
M114
; Well F9: 100 uL
G21
G90
M211 S1
G1 X154.000 Y176.727 F30000
M400
G1 A22.933 F600
M400
M114
; Well G9: 100 uL
G21
G90
M211 S1
G1 X163.000 Y176.727 F30000
M400
G1 A17.200 F600
M400
M114
; Well H9: 100 uL
G21
G90
M211 S1
G1 X172.000 Y176.727 F30000
M400
G1 A11.467 F600
M400
M114
; Fill for column 10
G21
G90
M211 S1
G1 Z75.000 F300
M400
G1 X72.000 Y158.000 F30000
M400
G1 Z40.000 F300
M400
G1 A0.000 F600
M400
G1 A57.333 F600
M400
M114
; Well A10: 100 uL
G21
G90
M211 S1
G1 Z75.000 F300
M400
G1 X109.000 Y185.818 F30000
M400
G1 Z42.000 F300
M400
G1 A51.600 F600
M400
M114
; Well B10: 100 uL
G21
G90
M211 S1
G1 X118.000 Y185.818 F30000
M400
G1 A45.867 F600
M400
M114
; Well C10: 100 uL
G21
G90
M211 S1
G1 X127.000 Y185.818 F30000
M400
G1 A40.133 F600
M400
M114
; Well D10: 100 uL
G21
G90
M211 S1
G1 X136.000 Y185.818 F30000
M400
G1 A34.400 F600
M400
M114
; Well E10: 100 uL
G21
G90
M211 S1
G1 X145.000 Y185.818 F30000
M400
G1 A28.667 F600
M400
M114
; Well F10: 100 uL
G21
G90
M211 S1
G1 X154.000 Y185.818 F30000
M400
G1 A22.933 F600
M400
M114
; Well G10: 100 uL
G21
G90
M211 S1
G1 X163.000 Y185.818 F30000
M400
G1 A17.200 F600
M400
M114
; Well H10: 100 uL
G21
G90
M211 S1
G1 X172.000 Y185.818 F30000
M400
G1 A11.467 F600
M400
M114
; Fill for column 11
G21
G90
M211 S1
G1 Z75.000 F300
M400
G1 X72.000 Y158.000 F30000
M400
G1 Z40.000 F300
M400
G1 A0.000 F600
M400
G1 A57.333 F600
M400
M114
; Well A11: 100 uL
G21
G90
M211 S1
G1 Z75.000 F300
M400
G1 X109.000 Y194.909 F30000
M400
G1 Z42.000 F300
M400
G1 A51.600 F600
M400
M114
; Well B11: 100 uL
G21
G90
M211 S1
G1 X118.000 Y194.909 F30000
M400
G1 A45.867 F600
M400
M114
; Well C11: 100 uL
G21
G90
M211 S1
G1 X127.000 Y194.909 F30000
M400
G1 A40.133 F600
M400
M114
; Well D11: 100 uL
G21
G90
M211 S1
G1 X136.000 Y194.909 F30000
M400
G1 A34.400 F600
M400
M114
; Well E11: 100 uL
G21
G90
M211 S1
G1 X145.000 Y194.909 F30000
M400
G1 A28.667 F600
M400
M114
; Well F11: 100 uL
G21
G90
M211 S1
G1 X154.000 Y194.909 F30000
M400
G1 A22.933 F600
M400
M114
; Well G11: 100 uL
G21
G90
M211 S1
G1 X163.000 Y194.909 F30000
M400
G1 A17.200 F600
M400
M114
; Well H11: 100 uL
G21
G90
M211 S1
G1 X172.000 Y194.909 F30000
M400
G1 A11.467 F600
M400
M114
; Fill for column 12
G21
G90
M211 S1
G1 Z75.000 F300
M400
G1 X72.000 Y158.000 F30000
M400
G1 Z40.000 F300
M400
G1 A0.000 F600
M400
G1 A57.333 F600
M400
M114
; Well A12: 100 uL
G21
G90
M211 S1
G1 Z75.000 F300
M400
G1 X109.000 Y204.000 F30000
M400
G1 Z42.000 F300
M400
G1 A51.600 F600
M400
M114
; Well B12: 100 uL
G21
G90
M211 S1
G1 X118.000 Y204.000 F30000
M400
G1 A45.867 F600
M400
M114
; Well C12: 100 uL
G21
G90
M211 S1
G1 X127.000 Y204.000 F30000
M400
G1 A40.133 F600
M400
M114
; Well D12: 100 uL
G21
G90
M211 S1
G1 X136.000 Y204.000 F30000
M400
G1 A34.400 F600
M400
M114
; Well E12: 100 uL
G21
G90
M211 S1
G1 X145.000 Y204.000 F30000
M400
G1 A28.667 F600
M400
M114
; Well F12: 100 uL
G21
G90
M211 S1
G1 X154.000 Y204.000 F30000
M400
G1 A22.933 F600
M400
M114
; Well G12: 100 uL
G21
G90
M211 S1
G1 X163.000 Y204.000 F30000
M400
G1 A17.200 F600
M400
M114
; Well H12: 100 uL
G21
G90
M211 S1
G1 X172.000 Y204.000 F30000
M400
G1 A11.467 F600
M400
M114
; Final reservoir purge
G21
G90
M211 S1
G1 Z75.000 F300
M400
G1 X72.000 Y158.000 F30000
M400
G1 Z40.000 F300
M400
G1 A0.000 F600
M400
M114
; Park and release all motors
G21
G90
M211 S1
M203 A5
G1 Z100.000 F300
M400
M114
M400
M84
